{"type": "FeatureCollection", "features": [ {"type": "Feature", "properties": {"norad_id": 66466, "name": "STARLINK-35388", "group": "last-30-days", "lat": 33.60321962975323, "lon": -95.29946907206875, "alt_km": 373.23456948336843, "timestamp": "2025-12-02T15:49:05.948660+00:00", "meta": {"OBJECT_NAME": "STARLINK-35388", "OBJECT_ID": "2025-262L", "EPOCH": "2025-12-02T06:00:02.999808", "MEAN_MOTION": 15.65428523, "ECCENTRICITY": 0.00017184, "INCLINATION": 42.9995, "RA_OF_ASC_NODE": 132.6314, "ARG_OF_PERICENTER": 272.245, "MEAN_ANOMALY": 66.7664, "EPHEMERIS_TYPE": 0, "CLASSIFICATION_TYPE": "U", "NORAD_CAT_ID": 66466, "ELEMENT_SET_NO": 999, "REV_AT_EPOCH": 395, "BSTAR": -0.023282904, "MEAN_MOTION_DOT": -0.02091834, "MEAN_MOTION_DDOT": 0}, "tle": {"line1": "1 66466U 25262L   25336.25003472 -.02091834  00000+0 -23283-1 0  9994", "line2": "2 66466  42.9995 132.6314 0001718 272.2450  66.7664 15.65428523  3950"}}, "geometry": {"type": "Point", "coordinates": [-95.29946907206875, 33.60321962975323]}}, {"type": "Feature", "properties": {"norad_id": 66467, "name": "STARLINK-35682", "group": "last-30-days", "lat": 35.37006999445691, "lon": -99.4266937628551, "alt_km": 373.0302485671182, "timestamp": "2025-12-02T15:49:05.948672+00:00", "meta": {"OBJECT_NAME": "STARLINK-35682", "OBJECT_ID": "2025-262M", "EPOCH": "2025-12-02T06:00:02.999808", "MEAN_MOTION": 15.65433215, "ECCENTRICITY": 0.00018629, "INCLINATION": 42.9992, "RA_OF_ASC_NODE": 132.642, "ARG_OF_PERICENTER": 268.4752, "MEAN_ANOMALY": 66.6973, "EPHEMERIS_TYPE": 0, "CLASSIFICATION_TYPE": "U", "NORAD_CAT_ID": 66467, "ELEMENT_SET_NO": 999, "REV_AT_EPOCH": 395, "BSTAR": -0.02332876, "MEAN_MOTION_DOT": -0.02095899, "MEAN_MOTION_DDOT": 0}, "tle": {"line1": "1 66467U 25262M   25336.25003472 -.02095899  00000+0 -23329-1 0  9991", "line2": "2 66467  42.9992 132.6420 0001862 268.4752  66.6973 15.65433215  3954"}}, "geometry": {"type": "Point", "coordinates": [-99.4266937628551, 35.37006999445691]}}, {"type": "Feature", "properties": {"norad_id": 66468, "name": "STARLINK-35331", "group": "last-30-days", "lat": 32.67068601191589, "lon": -93.3028705330806, "alt_km": 373.38565735715383, "timestamp": "2025-12-02T15:49:05.948682+00:00", "meta": {"OBJECT_NAME": "STARLINK-35331", "OBJECT_ID": "2025-262N", "EPOCH": "2025-12-02T06:00:02.999808", "MEAN_MOTION": 15.65437022, "ECCENTRICITY": 0.00017876, "INCLINATION": 42.9993, "RA_OF_ASC_NODE": 132.6276, "ARG_OF_PERICENTER": 271.1293, "MEAN_ANOMALY": 69.793, "EPHEMERIS_TYPE": 0, "CLASSIFICATION_TYPE": "U", "NORAD_CAT_ID": 66468, "ELEMENT_SET_NO": 999, "REV_AT_EPOCH": 395, "BSTAR": -0.023394321, "MEAN_MOTION_DOT": -0.02101242, "MEAN_MOTION_DDOT": 0}, "tle": {"line1": "1 66468U 25262N   25336.25003472 -.02101242  00000+0 -23394-1 0  9994", "line2": "2 66468  42.9993 132.6276 0001787 271.1293  69.7930 15.65437022  3959"}}, "geometry": {"type": "Point", "coordinates": [-93.3028705330806, 32.67068601191589]}}, {"type": "Feature", "properties": {"norad_id": 66469, "name": "STARLINK-35451", "group": "last-30-days", "lat": 29.690917102336826, "lon": -87.55960792237211, "alt_km": 373.7001048356087, "timestamp": "2025-12-02T15:49:05.948692+00:00", "meta": {"OBJECT_NAME": "STARLINK-35451", "OBJECT_ID": "2025-262P", "EPOCH": "2025-12-02T06:00:02.999808", "MEAN_MOTION": 15.65428909, "ECCENTRICITY": 0.00017551, "INCLINATION": 42.999, "RA_OF_ASC_NODE": 132.6115, "ARG_OF_PERICENTER": 268.1893, "MEAN_ANOMALY": 78.4906, "EPHEMERIS_TYPE": 0, "CLASSIFICATION_TYPE": "U", "NORAD_CAT_ID": 66469, "ELEMENT_SET_NO": 999, "REV_AT_EPOCH": 395, "BSTAR": -0.023274347, "MEAN_MOTION_DOT": -0.02091226, "MEAN_MOTION_DDOT": 0}, "tle": {"line1": "1 66469U 25262P   25336.25003472 -.02091226  00000+0 -23274-1 0  9992", "line2": "2 66469  42.9990 132.6115 0001755 268.1893  78.4906 15.65428909  3950"}}, "geometry": {"type": "Point", "coordinates": [-87.55960792237211, 29.690917102336826]}}, {"type": "Feature", "properties": {"norad_id": 66470, "name": "STARLINK-35655", "group": "last-30-days", "lat": 31.706218899779753, "lon": -91.3474350042128, "alt_km": 373.44443811516066, "timestamp": "2025-12-02T15:49:05.948702+00:00", "meta": {"OBJECT_NAME": "STARLINK-35655", "OBJECT_ID": "2025-262Q", "EPOCH": "2025-12-02T06:00:02.999808", "MEAN_MOTION": 15.65431415, "ECCENTRICITY": 0.000173, "INCLINATION": 42.9991, "RA_OF_ASC_NODE": 132.6229, "ARG_OF_PERICENTER": 269.5466, "MEAN_ANOMALY": 73.2949, "EPHEMERIS_TYPE": 0, "CLASSIFICATION_TYPE": "U", "NORAD_CAT_ID": 66470, "ELEMENT_SET_NO": 999, "REV_AT_EPOCH": 395, "BSTAR": -0.023287719, "MEAN_MOTION_DOT": -0.02092436, "MEAN_MOTION_DDOT": 0}, "tle": {"line1": "1 66470U 25262Q   25336.25003472 -.02092436  00000+0 -23288-1 0  9993", "line2": "2 66470  42.9991 132.6229 0001730 269.5466  73.2949 15.65431415  3959"}}, "geometry": {"type": "Point", "coordinates": [-91.3474350042128, 31.706218899779753]}}, {"type": "Feature", "properties": {"norad_id": 66471, "name": "STARLINK-35569", "group": "last-30-days", "lat": 30.712455251197657, "lon": -89.43313716537601, "alt_km": 373.55967545701515, "timestamp": "2025-12-02T15:49:05.948711+00:00", "meta": {"OBJECT_NAME": "STARLINK-35569", "OBJECT_ID": "2025-262R", "EPOCH": "2025-12-02T06:00:02.999808", "MEAN_MOTION": 15.65432473, "ECCENTRICITY": 0.00017305, "INCLINATION": 42.9992, "RA_OF_ASC_NODE": 132.6176, "ARG_OF_PERICENTER": 268.1203, "MEAN_ANOMALY": 76.6412, "EPHEMERIS_TYPE": 0, "CLASSIFICATION_TYPE": "U", "NORAD_CAT_ID": 66471, "ELEMENT_SET_NO": 999, "REV_AT_EPOCH": 395, "BSTAR": -0.02334556, "MEAN_MOTION_DOT": -0.02097041, "MEAN_MOTION_DDOT": 0}, "tle": {"line1": "1 66471U 25262R   25336.25003472 -.02097041  00000+0 -23346-1 0  9996", "line2": "2 66471  42.9992 132.6176 0001730 268.1203  76.6412 15.65432473  3953"}}, "geometry": {"type": "Point", "coordinates": [-89.43313716537601, 30.712455251197657]}}, {"type": "Feature", "properties": {"norad_id": 66472, "name": "STARLINK-35567", "group": "last-30-days", "lat": 28.643644236497593, "lon": -85.7214148583102, "alt_km": 373.86816566654306, "timestamp": "2025-12-02T15:49:05.948723+00:00", "meta": {"OBJECT_NAME": "STARLINK-35567", "OBJECT_ID": "2025-262S", "EPOCH": "2025-12-02T06:00:02.999808", "MEAN_MOTION": 15.65428943, "ECCENTRICITY": 0.00016911, "INCLINATION": 42.9994, "RA_OF_ASC_NODE": 132.6079, "ARG_OF_PERICENTER": 271.372, "MEAN_ANOMALY": 77.2248, "EPHEMERIS_TYPE": 0, "CLASSIFICATION_TYPE": "U", "NORAD_CAT_ID": 66472, "ELEMENT_SET_NO": 999, "REV_AT_EPOCH": 395, "BSTAR": -0.02328875, "MEAN_MOTION_DOT": -0.02092299, "MEAN_MOTION_DDOT": 0}, "tle": {"line1": "1 66472U 25262S   25336.25003472 -.02092299  00000+0 -23289-1 0  9993", "line2": "2 66472  42.9994 132.6079 0001691 271.3720  77.2248 15.65428943  3955"}}, "geometry": {"type": "Point", "coordinates": [-85.7214148583102, 28.643644236497593]}}, {"type": "Feature", "properties": {"norad_id": 66473, "name": "STARLINK-35568", "group": "last-30-days", "lat": 27.573481960728667, "lon": -83.9245363583352, "alt_km": 374.0369573098169, "timestamp": "2025-12-02T15:49:05.948734+00:00", "meta": {"OBJECT_NAME": "STARLINK-35568", "OBJECT_ID": "2025-262T", "EPOCH": "2025-12-02T06:00:02.999808", "MEAN_MOTION": 15.65437822, "ECCENTRICITY": 0.0001806, "INCLINATION": 42.9995, "RA_OF_ASC_NODE": 132.6028, "ARG_OF_PERICENTER": 270.0256, "MEAN_ANOMALY": 80.4796, "EPHEMERIS_TYPE": 0, "CLASSIFICATION_TYPE": "U", "NORAD_CAT_ID": 66473, "ELEMENT_SET_NO": 999, "REV_AT_EPOCH": 395, "BSTAR": -0.023372497, "MEAN_MOTION_DOT": -0.02099611, "MEAN_MOTION_DDOT": 0}, "tle": {"line1": "1 66473U 25262T   25336.25003472 -.02099611  00000+0 -23372-1 0  9992", "line2": "2 66473  42.9995 132.6028 0001806 270.0256  80.4796 15.65437822  3959"}}, "geometry": {"type": "Point", "coordinates": [-83.9245363583352, 27.573481960728667]}}, {"type": "Feature", "properties": {"norad_id": 66474, "name": "STARLINK-35620", "group": "last-30-days", "lat": 26.478047190543, "lon": -82.15938387081393, "alt_km": 374.15619547238475, "timestamp": "2025-12-02T15:49:05.948746+00:00", "meta": {"OBJECT_NAME": "STARLINK-35620", "OBJECT_ID": "2025-262U", "EPOCH": "2025-12-02T06:00:02.999808", "MEAN_MOTION": 15.65429393, "ECCENTRICITY": 0.00017539, "INCLINATION": 42.9993, "RA_OF_ASC_NODE": 132.5976, "ARG_OF_PERICENTER": 269.958, "MEAN_ANOMALY": 82.4728, "EPHEMERIS_TYPE": 0, "CLASSIFICATION_TYPE": "U", "NORAD_CAT_ID": 66474, "ELEMENT_SET_NO": 999, "REV_AT_EPOCH": 395, "BSTAR": -0.023292537, "MEAN_MOTION_DOT": -0.02092684, "MEAN_MOTION_DDOT": 0}, "tle": {"line1": "1 66474U 25262U   25336.25003472 -.02092684  00000+0 -23293-1 0  9998", "line2": "2 66474  42.9993 132.5976 0001753 269.9580  82.4728 15.65429393  3958"}}, "geometry": {"type": "Point", "coordinates": [-82.15938387081393, 26.478047190543]}}, {"type": "Feature", "properties": {"norad_id": 66475, "name": "STARLINK-35538", "group": "last-30-days", "lat": 25.363176819563748, "lon": -80.42927129891369, "alt_km": 374.37289176058675, "timestamp": "2025-12-02T15:49:05.948758+00:00", "meta": {"OBJECT_NAME": "STARLINK-35538", "OBJECT_ID": "2025-262V", "EPOCH": "2025-12-02T06:00:02.999808", "MEAN_MOTION": 15.65432553, "ECCENTRICITY": 0.00018051, "INCLINATION": 42.9996, "RA_OF_ASC_NODE": 132.5935, "ARG_OF_PERICENTER": 272.4759, "MEAN_ANOMALY": 81.8665, "EPHEMERIS_TYPE": 0, "CLASSIFICATION_TYPE": "U", "NORAD_CAT_ID": 66475, "ELEMENT_SET_NO": 999, "REV_AT_EPOCH": 395, "BSTAR": -0.023302663, "MEAN_MOTION_DOT": -0.02093755, "MEAN_MOTION_DDOT": 0}, "tle": {"line1": "1 66475U 25262V   25336.25003472 -.02093755  00000+0 -23303-1 0  9991", "line2": "2 66475  42.9996 132.5935 0001805 272.4759  81.8665 15.65432553  3957"}}, "geometry": {"type": "Point", "coordinates": [-80.42927129891369, 25.363176819563748]}}]}